GLOBALSTAR M067         
1 32263U 07048A   24302.57134947 -.00000066  00000+0  23350-3 0  9994
2 32263  51.9753 353.6529 0000919 189.5656 317.7996 12.40658169780739
GLOBALSTAR M070         
1 32264U 07048B   24302.52523410 -.00000057  00000+0  26355-3 0  9995
2 32264  51.9728 114.2310 0000761  85.4323 311.9851 12.62304188784419
GLOBALSTAR M066         
1 32265U 07048C   24302.54907500 -.00000047  00000+0  36635-3 0  9995
2 32265  51.9693 340.7779 0000315 179.1931 346.2886 12.42164150786598
GLOBALSTAR M068         
1 32266U 07048D   24302.42397047 -.00000042  00000+0  34072-3 0  9990
2 32266  51.9886 288.7393 0001152   5.9511 159.1857 12.62805300788273
GLOBALSTAR M079         
1 37188U 10054A   24302.47507020 -.00000056  00000+0  26622-3 0  9995
2 37188  52.0013 125.1554 0001152 102.9573 274.3651 12.62266520647196
GLOBALSTAR M074         
1 37189U 10054B   24302.58576830 -.00000078  00000+0  14491-3 0  9998
2 37189  51.9990 124.1727 0000757  97.0834 305.9529 12.62258331647819
GLOBALSTAR M076         
1 37190U 10054C   24302.53198144 -.00000040  00000+0  35618-3 0  9996
2 37190  52.0004 124.4924 0000887 115.8312 278.9696 12.62272924647521
GLOBALSTAR M077         
1 37191U 10054D   24302.44022959 -.00000081  00000+0  12605-3 0  9993
2 37191  52.0068  81.5579 0000789 104.4875 293.9470 12.62265999647880
